{
  "norad_id": 57956,
  "name": "SKYKRAFT-3D",
  "history": [
    {
      "epoch": "2026-03-28T16:32:23.236512",
      "apogee_km": 371.2915814299731,
      "perigee_km": 365.2414067764612,
      "latitude_deg": -66.27815800246039,
      "longitude_deg": 41.759151679929346,
      "semi_major_axis_km": 6746.403494103217,
      "eccentricity": 0.0004484,
      "inclination_deg": 97.6012,
      "raan_deg": 239.5915,
      "arg_perigee_deg": 206.9607,
      "mean_anomaly_deg": 153.1421,
      "mean_motion_rev_day": 15.66730484
    }
  ]
}